BEIDOU-2 IGSO-5         
1 37948U 11073A   26175.65702808 -.00000196  00000+0  00000+0 0  9995
2 37948  47.6633 271.4526 0114223 222.0346 107.5350  1.00272136 53204
LUCH-5A                 
1 37951U 11074B   26178.62742193 -.00000047  00000+0  00000+0 0  9996
2 37951   8.7797  73.6563 0002730  33.3636 201.5146  1.00272476 53153
BEIDOU-2 G5             
1 38091U 12008A   26178.17632922  .00000064  00000+0  00000+0 0  9996
2 38091   3.5989  69.6432 0008608 276.0953  51.7632  1.00275907 52463
BEIDOU-2 M3             
1 38250U 12018A   26176.78001370 -.00000106  00000+0  00000+0 0  9994
2 38250  55.7497 304.5848 0020315 273.3514  86.4060  1.86229866 96103
BEIDOU-2 M4             
1 38251U 12018B   26177.24927973 -.00000103  00000+0  00000+0 0  9990
2 38251  55.6492 303.7834 0011701 273.7859  86.0713  1.86229631 96111
SES-5                   
1 38652U 12036A   26178.52212617  .00000045  00000+0  00000+0 0  9993
2 38652   0.0455 318.1392 0002369 133.5086  16.9182  1.00269092 44568
BEIDOU-2 M6             
1 38775U 12050B   26176.95898030 -.00000089  00000+0  00000+0 0  9998
2 38775  56.5518  62.6042 0013516 358.2268   1.8099  1.86231117 93472
GSAT-10                 
1 38779U 12051B   26178.46631647 -.00000153  00000+0  00000+0 0  9992
2 38779   0.0584 258.1707 0008183 193.0496  75.2551  1.00271951 50203
NAVSTAR 67 (USA 239)    
1 38833U 12053A   26178.28751069  .00000019  00000+0  00000+0 0  9996
2 38833  53.5876 143.1856 0180880  65.9141 295.9290  2.00567714 99646
GSAT0103 (GALILEO-FM3)  
1 38857U 12055A   26177.86101312 -.00000037  00000+0  00000+0 0  9998
2 38857  55.8122 101.2802 0004638 306.6783  53.2530  1.70473558 85173
BEIDOU-2 G6             
1 38953U 12059A   26178.11001068 -.00000168  00000+0  00000+0 0  9990
2 38953   4.4468  73.4212 0009695 328.8904 356.5521  1.00271322 50008
LUCH-5B                 
1 38977U 12061A   26178.44654350 -.00000135  00000+0  00000+0 0  9997
2 38977  10.5057  49.7809 0002562 135.9824 234.2958  1.00272694 49713
COSMOS 2485 [GLONASS-M] 
1 39155U 13019A   26178.23371623 -.00000052  00000+0  00000+0 0  9994
2 39155  65.4252  73.2671 0022910 232.8969 126.9354  2.13103295102490
NAVSTAR 68 (USA 242)    
1 39166U 13023A   26177.65617133 -.00000035  00000+0  00000+0 0  9996
2 39166  54.4965 268.5877 0141436  51.0497 310.2453  2.00563559 96073
IRNSS-1A                
1 39199U 13034A   26177.74795137  .00000049  00000+0  00000+0 0  9999
2 39199  35.7414  63.7332 0018548 177.8965 357.4604  1.00278024 47464
NAVSTAR 69 (USA 248)    
1 39533U 14008A   26177.65790840  .00000036  00000+0  00000+0 0  9995
2 39533  53.6560 148.9335 0084213 231.3918 127.8244  2.00560485 89878
ASTRA 5B                
1 39617U 14011B   26178.52578218  .00000149  00000+0  00000+0 0  9997
2 39617   0.0522 326.6148 0002212 114.4311  47.3410  1.00272872 44779
COSMOS 2492 [GLONASS-M] 
1 39620U 14012A   26174.90776451 -.00000082  00000+0  00000+0 0  9996
2 39620  65.2933 313.7069 0010214 323.0851  36.8355  2.13103141 95380
IRNSS-1B                
1 39635U 14017A   26177.74786470  .00000145  00000+0  00000+0 0  9993
2 39635  28.9068 240.2389 0023551 196.9483 161.9840  1.00269902 44887
LUCH-5V                 
1 39727U 14023A   26178.11217736 -.00000262  00000+0  00000+0 0  9999
2 39727   5.1575  69.6499 0002494  49.8207 290.8987  1.00271863 44453
NAVSTAR 70 (USA 251)    
1 39741U 14026A   26178.43213360 -.00000101  00000+0  00000+0 0  9994
2 39741  56.4930 331.1187 0038117 326.3333  33.4163  2.00560424 88739
COSMOS 2500 [GLONASS-M] 
1 40001U 14032A   26177.89294639 -.00000083  00000+0  00000+0 0  9998
2 40001  65.2261 313.3519 0007742 186.1221 173.8575  2.13105995 93660
NAVSTAR 71 (USA 256)    
1 40105U 14045A   26177.02815772 -.00000068  00000+0  00000+0 0  9992
2 40105  55.3587  88.1127 0033686 118.2750 242.0678  2.00559107 86251
GSAT0201 (GALILEO 5)    
1 40128U 14050A   26177.04069356 -.00000070  00000+0  00000+0 0  9997
2 40128  48.8656 273.0732 1675889 179.7342 180.4221  1.85520188 78488
GSAT0202 (GALILEO 6)    
1 40129U 14050B   26178.37417391 -.00000053  00000+0  00000+0 0  9992
2 40129  48.8808 272.1040 1677252 180.5175 179.3439  1.85520761 80679
IRNSS-1C                
1 40269U 14061A   26177.82458705 -.00000156  00000+0  00000+0 0  9996
2 40269   6.5413  88.7480 0022153   4.7064 201.2419  1.00275377 42783
NAVSTAR 72 (USA 258)    
1 40294U 14068A   26177.89449557 -.00000079  00000+0  00000+0 0  9997
2 40294  56.9942  30.5808 0067245  70.9615 289.8243  2.00576946 85404
COSMOS 2501 [GLONASS-K] 
1 40315U 14075A   26177.21663207  .00000105  00000+0  00000+0 0  9994
2 40315  63.6151 190.0588 0022237 210.4369 149.4832  2.13109644 90043
NAVSTAR 73 (USA 260)    
1 40534U 15013A   26177.03735334  .00000087  00000+0  00000+0 0  9990
2 40534  53.1674 203.8114 0109747  40.1916 320.6840  2.00550980 82004
GSAT0203 (GALILEO 7)    
1 40544U 15017A   26177.59813449 -.00000096  00000+0  00000+0 0  9991
2 40544  56.7831 341.3391 0002130 269.4919  90.4779  1.70476365 69368
GSAT0204 (GALILEO 8)    
1 40545U 15017B   26174.92103312 -.00000099  00000+0  00000+0 0  9990
2 40545  56.7909 341.4306 0002093 241.0442 118.9316  1.70475870 32360
